FENGYUN 1C DEB          
1 35170U 99025DNA 17345.13390487  .00000807  00000-0  52907-3 0  9997
2 35170  99.8604 313.1805 0109601 335.9407  23.6658 14.02568066494930
